{"epoch":1784762836,"count":18316,"objects":[{"id":"41860","name":"GALILEO 16 (26C)","type":"PAYLOAD","l1":"1 41860U 16069B   26202.20750608 -.00000046  00000-0  00000-0 0  9992","l2":"2 41860  55.5158 100.1394 0004407  15.8741 344.1750  1.70473851 60230"},{"id":"41861","name":"GALILEO 17 (26D)","type":"PAYLOAD","l1":"1 41861U 16069C   26203.16122456 -.00000048  00000-0  00000-0 0  9995","l2":"2 41861  55.5184 100.1209 0003815 320.5981  39.4080  1.70474392 60117"},{"id":"41862","name":"GALILEO 18 (26E)","type":"PAYLOAD","l1":"1 41862U 16069D   26202.13435722 -.00000045  00000-0  00000-0 0  9992","l2":"2 41862  55.5164 100.1420 0003142 335.1519  24.8684  1.70473784 60227"},{"id":"43055","name":"GALILEO 19 (2C5)","type":"PAYLOAD","l1":"1 43055U 17079A   26202.62380459  .00000067  00000-0  00000-0 0  9993","l2":"2 43055  55.0665 220.5584 0003765 269.3113  90.6885  1.70474444 53579"},{"id":"43056","name":"GALILEO 20 (2C6)","type":"PAYLOAD","l1":"1 43056U 17079B   26201.15518388  .00000057  00000-0  00000-0 0  9994","l2":"2 43056  55.0668 220.5989 0004935 278.3287  81.6543  1.70474538 53568"},{"id":"43057","name":"GALILEO 21 (2C7)","type":"PAYLOAD","l1":"1 43057U 17079C   26201.96257603  .00000062  00000-0  00000-0 0  9990","l2":"2 43057  55.0652 220.5745 0004260 292.9460  67.0499  1.70474474 53565"},{"id":"43058","name":"GALILEO 22 (2C8)","type":"PAYLOAD","l1":"1 43058U 17079D   26202.18265508  .00000064  00000-0  00000-0 0  9991","l2":"2 43058  55.0651 220.5659 0005416 275.2147  84.7650  1.70474478 53591"},{"id":"43564","name":"GALILEO 25 (2C1)","type":"PAYLOAD","l1":"1 43564U 18060A   26198.56730463 -.00000104  00000-0  00000-0 0  9993","l2":"2 43564  57.1585 340.9609 0002701 283.6812  76.2771  1.70476136 49688"},{"id":"43565","name":"GALILEO 26 (2C2)","type":"PAYLOAD","l1":"1 43565U 18060B   26202.89310238 -.00000107  00000-0  00000-0 0  9993","l2":"2 43565  57.1601 340.8479 0003036 234.2214 125.7449  1.70476084 49800"},{"id":"43566","name":"GALILEO 23 (2C9)","type":"PAYLOAD","l1":"1 43566U 18060C   26203.11394765 -.00000107  00000-0  00000-0 0  9997","l2":"2 43566  57.1594 340.8434 0001902 291.7080  68.2662  1.70476312 49781"},{"id":"43567","name":"GALILEO 24 (2C0)","type":"PAYLOAD","l1":"1 43567U 18060D   26200.98863111 -.00000107  00000-0  00000-0 0  9996","l2":"2 43567  57.1597 340.9001 0002111 284.4251  75.5444  1.70476103 49730"},{"id":"49809","name":"GALILEO 27 (223)","type":"PAYLOAD","l1":"1 49809U 21116A   26203.48190089 -.00000107  00000-0  00000-0 0  9992","l2":"2 49809  57.1475 340.7222 0002506 195.3315 345.6811  1.70476501 28785"},{"id":"49810","name":"GALILEO 28 (224)","type":"PAYLOAD","l1":"1 49810U 21116B   26200.95392787 -.00000107  00000-0  00000-0 0  9992","l2":"2 49810  57.1487 340.7887 0001904 182.1498   0.0180  1.70476408 28769"}]}